format  = 'OEF2.0'       ! file format
rectype = '1L'           ! record type (1L/ML)
elem    = 'KEP'          ! type of orbital elements
refsys  = ECLM J2000     ! default reference system
END_OF_HEADER
! Name, Epoch(MJD), a, e, i, long. node, arg. peric., mean anomaly, absolute magnitude, slope param, non-grav param
433           53791.241721    1.4580850879518152E+00   2.2276648293317824E-01   1.0828968240269813E+01   3.0438968431527178E+02   1.7865613778884747E+02   2.3522149848735475E+02  10.85  0.46  0
6344P-L       54279.370204    2.8039034258491382E+00   6.6690026321858520E-01   4.7309101708797527E+00   1.8367880827375714E+02   2.3404960119006245E+02   3.3009070787043146E+02  20.40  0.15  0
2015GZ        57124.262212    2.7971447612145970E+00   7.2012628827801706E-01   1.3510774623902163E+01   2.0375151891132017E+01   1.1383106956423489E+02   9.3612090170941080E+00  26.06  0.15  0